[{"OBJECT_NAME":"HAWK-11B","OBJECT_ID":"2024-247C","EPOCH":"2026-03-09T10:44:06.809856","MEAN_MOTION":15.2884707,"ECCENTRICITY":0.00046902,"INCLINATION":45.0161,"RA_OF_ASC_NODE":115.761,"ARG_OF_PERICENTER":333.0326,"MEAN_ANOMALY":27.0314,"EPHEMERIS_TYPE":0,"CLASSIFICATION_TYPE":"U","NORAD_CAT_ID":62379,"ELEMENT_SET_NO":999,"REV_AT_EPOCH":6773,"BSTAR":0.00032841927,"MEAN_MOTION_DOT":9.093e-5,"MEAN_MOTION_DDOT":0},{"OBJECT_NAME":"STARLINK-36425","OBJECT_ID":"2026-008Y","EPOCH":"2026-03-09T09:24:05.718240","MEAN_MOTION":15.27592602,"ECCENTRICITY":0.00018644,"INCLINATION":42.9947,"RA_OF_ASC_NODE":207.1682,"ARG_OF_PERICENTER":144.4244,"MEAN_ANOMALY":215.6732,"EPHEMERIS_TYPE":0,"CLASSIFICATION_TYPE":"U","NORAD_CAT_ID":67467,"ELEMENT_SET_NO":999,"REV_AT_EPOCH":952,"BSTAR":0.001005985,"MEAN_MOTION_DOT":0.00027535,"MEAN_MOTION_DDOT":0}]
